H1 CPF  1  DLR 2022 04 03 10  5932 technosat            
H2  1704205 6203    42829 2022 04 03 00 00 00 2022 04 10 00 00 00    60 1 1  0 0 0
H9
10 0 59677  14400.000000  0      -2583715.418      -2971397.907      -5749795.930
10 0 59677  14460.000000  0      -2429117.122      -2611715.209      -5986984.152
10 0 59677  14520.000000  0      -2261118.301      -2242465.297      -6198821.688
10 0 59677  14580.000000  0      -2080352.549      -1865318.670      -6384421.998
10 0 59677  14640.000000  0      -1887521.006      -1481971.712      -6543009.666
10 0 59677  14700.000000  0      -1683389.566      -1094139.022      -6673923.340
10 0 59677  14760.000000  0      -1468785.774       -703545.735      -6776618.191
10 0 59677  14820.000000  0      -1244595.470       -311919.909      -6850667.894
10 0 59677  14880.000000  0      -1011759.129         79015.017      -6895766.207
10 0 59677  14940.000000  0       -771267.893        467547.685      -6911728.109
10 0 59677  15000.000000  0       -524159.369        851986.219      -6898490.461
10 0 59677  15060.000000  0       -271513.195       1230665.519      -6856112.120
10 0 59677  15120.000000  0        -14446.449       1601954.265      -6784773.645
10 0 59677  15180.000000  0        245891.174       1964261.869      -6684776.696
10 0 59677  15240.000000  0        508322.503       2316045.286      -6556542.879
10 0 59677  15300.000000  0        771648.210       2655815.530      -6400612.061
10 0 59677  15360.000000  0       1034652.214       2982143.980      -6217640.219
10 0 59677  15420.000000  0       1296107.191       3293668.404      -6008396.804
10 0 59677  15480.000000  0       1554780.241       3589098.644      -5773761.719
10 0 59677  15540.000000  0       1809438.655       3867222.009      -5514721.864
10 0 59677  15600.000000  0       2058855.750       4126908.364      -5232367.228
10 0 59677  15660.000000  0       2301816.754       4367114.868      -4927886.535
10 0 59677  15720.000000  0       2537124.722       4586890.352      -4602562.444
10 0 59677  15780.000000  0       2763606.398       4785379.276      -4257766.283
10 0 59677  15840.000000  0       2980118.052       4961825.214      -3894952.430
10 0 59677  15900.000000  0       3185551.253       5115573.917      -3515652.343
10 0 59677  15960.000000  0       3378838.580       5246075.970      -3121468.200
10 0 59677  16020.000000  0       3558959.196       5352888.909      -2714066.112
10 0 59677  16080.000000  0       3724944.200       5435678.773      -2295169.078
10 0 59677  16140.000000  0       3875881.791       5494221.226      -1866549.698
10 0 59677  16200.000000  0       4010922.217       5528402.155      -1430022.571
10 0 59677  16260.000000  0       4129282.420       5538217.732       -987436.475
10 0 59677  16320.000000  0       4230250.412       5523773.931       -540666.379
10 0 59677  16380.000000  0       4313189.335       5485285.488        -91605.323
10 0 59677  16440.000000  0       4377541.162       5423074.345        357843.810
10 0 59677  16500.000000  0       4422829.986       5337567.527        805776.551
10 0 59677  16560.000000  0       4448664.891       5229294.542       1250295.060
10 0 59677  16620.000000  0       4454742.446       5098884.399       1689516.250
10 0 59677  16680.000000  0       4440848.918       4947062.210       2121579.949
10 0 59677  16740.000000  0       4406862.016       4774645.216       2544657.086
10 0 59677  16800.000000  0       4352751.971       4582538.253       2956957.644
10 0 59677  16860.000000  0       4278582.213       4371728.965       3356738.200
10 0 59677  16920.000000  0       4184509.706       4143282.695       3742309.363
10 0 59677  16980.000000  0       4070784.775       3898336.926       4112042.901
10 0 59677  17040.000000  0       3937750.563       3638095.518       4464378.467
10 0 59677  17100.000000  0       3785842.086       3363822.816       4797830.214
10 0 59677  17160.000000  0       3615584.674       3076837.373       5110993.154
10 0 59677  17220.000000  0       3427591.898       2778505.350       5402548.839
10 0 59677  17280.000000  0       3222563.259       2470233.969       5671270.540
10 0 59677  17340.000000  0       3001281.552       2153464.883       5916028.198
10 0 59677  17400.000000  0       2764609.812       1829667.373       6135792.996
10 0 59677  17460.000000  0       2513487.862       1500331.491       6329641.457
10 0 59677  17520.000000  0       2248928.513       1166961.201       6496759.051
10 0 59677  17580.000000  0       1972013.448        831067.583       6636443.370
10 0 59677  17640.000000  0       1683888.780        494162.100       6748106.889
10 0 59677  17700.000000  0       1385760.329        157749.936       6831279.297
10 0 59677  17760.000000  0       1078888.623       -176676.641       6885609.437
10 0 59677  17820.000000  0        764583.606       -507644.898       6910866.726
10 0 59677  17880.000000  0        444199.117       -833708.056       6906942.031
10 0 59677  17940.000000  0        119127.125      -1153451.517       6873848.172
10 0 59677  18000.000000  0       -209208.250      -1465498.953       6811719.911
10 0 59677  18060.000000  0       -539356.887      -1768518.206       6720813.483
10 0 59677  18120.000000  0       -869849.006      -2061226.941       6601505.619
10 0 59677  18180.000000  0      -1199201.583      -2342398.036       6454292.083
10 0 59677  18240.000000  0      -1525924.825      -2610864.683       6279785.836
10 0 59677  18300.000000  0      -1848528.805      -2865525.267       6078714.827
10 0 59677  18360.000000  0      -2165530.223      -3105347.989       5851919.293
10 0 59677  18420.000000  0      -2475459.247      -3329375.213       5600348.594
10 0 59677  18480.000000  0      -2776866.447      -3536727.466       5325057.546
10 0 59677  18540.000000  0      -3068329.722      -3726607.057       5027202.222
10 0 59677  18600.000000  0      -3348461.106      -3898301.298       4708035.275
10 0 59677  18660.000000  0      -3615913.471      -4051185.339       4368900.875
10 0 59677  18720.000000  0      -3869387.139      -4184724.628       4011229.226
10 0 59677  18780.000000  0      -4107636.313      -4298476.920       3636530.645
10 0 59677  18840.000000  0      -4329475.322      -4392093.869       3246389.337
10 0 59677  18900.000000  0      -4533784.709      -4465322.217       2842456.788
10 0 59677  18960.000000  0      -4719517.068      -4518004.522       2426444.745
10 0 59677  19020.000000  0      -4885702.568      -4550079.385       2000117.869
10 0 59677  19080.000000  0      -5031454.123      -4561581.176       1565286.112
10 0 59677  19140.000000  0      -5155972.203      -4552639.307       1123796.896
10 0 59677  19200.000000  0      -5258549.265      -4523477.043        677527.046
10 0 59677  19260.000000  0      -5338573.746      -4474409.821        228374.563
10 0 59677  19320.000000  0      -5395533.594      -4405843.127       -221749.717
10 0 59677  19380.000000  0      -5429019.342      -4318269.924       -670930.571
10 0 59677  19440.000000  0      -5438726.645      -4212267.631      -1117256.887
10 0 59677  19500.000000  0      -5424458.280      -4088494.646      -1558830.147
10 0 59677  19560.000000  0      -5386125.583      -3947686.447      -1993772.804
10 0 59677  19620.000000  0      -5323749.330      -3790651.378      -2420236.478
10 0 59677  19680.000000  0      -5237460.128      -3618266.120      -2836410.037
10 0 59677  19740.000000  0      -5127498.226      -3431470.820      -3240527.465
10 0 59677  19800.000000  0      -4994212.825      -3231263.972      -3630875.456
10 0 59677  19860.000000  0      -4838060.878      -3018697.059      -4005800.777
10 0 59677  19920.000000  0      -4659605.319      -2794868.974      -4363717.323
10 0 59677  19980.000000  0      -4459512.802      -2560920.266      -4703112.797
10 0 59677  20040.000000  0      -4238550.948      -2318027.273      -5022555.018
10 0 59677  20100.000000  0      -3997585.138      -2067396.139      -5320697.850
10 0 59677  20160.000000  0      -3737574.861      -1810256.759      -5596286.716
10 0 59677  20220.000000  0      -3459569.638      -1547856.671      -5848163.654
10 0 59677  20280.000000  0      -3164704.561      -1281454.972      -6075271.944
10 0 59677  20340.000000  0      -2854195.450      -1012316.245      -6276660.293
10 0 59677  20400.000000  0      -2529333.639       -741704.565      -6451486.544
10 0 59677  20460.000000  0      -2191480.428       -470877.585      -6599020.908
10 0 59677  20520.000000  0      -1842061.240       -201080.733      -6718648.683
10 0 59677  20580.000000  0      -1482559.584         66458.409      -6809872.466
10 0 59677  20640.000000  0      -1114510.811        330535.567      -6872314.021
10 0 59677  20700.000000  0       -739495.582        589975.128      -6905715.733
10 0 59677  20760.000000  0       -359133.107        843635.341      -6909941.500
10 0 59677  20820.000000  0         24925.733       1090413.230      -6884977.107
10 0 59677  20880.000000  0        411005.375       1329249.219      -6830930.304
10 0 59677  20940.000000  0        797412.821       1559131.650      -6748030.532
10 0 59677  21000.000000  0       1182445.110       1779101.101      -6636627.948
10 0 59677  21060.000000  0       1564396.693       1988254.326      -6497191.916
10 0 59677  21120.000000  0       1941566.867       2185747.933      -6330309.247
10 0 59677  21180.000000  0       2312267.402       2370801.831      -6136681.906
10 0 59677  21240.000000  0       2674830.049       2542702.289      -5917124.119
10 0 59677  21300.000000  0       3027613.942       2700804.674      -5672559.153
10 0 59677  21360.000000  0       3369013.008       2844535.889      -5404015.739
10 0 59677  21420.000000  0       3697463.390       2973396.526      -5112624.035
10 0 59677  21480.000000  0       4011450.725       3086962.647      -4799611.040
10 0 59677  21540.000000  0       4309517.219       3184887.188      -4466295.638
99
